QZS-1R                  
1 49336U 21096A   24007.63864258 -.00000259  00000+0  00000+0 0  9993
2 49336  35.6125  93.0009 0757641 271.5835 104.3194  1.00249361  8074
